ONEWEB-0331             
1 49198U 21083N   24171.56868989  .00000156  00000+0  36261-3 0  9991
2 49198  87.9145 120.3030 0001901  84.1171 276.0178 13.18686728134110
ONEWEB-0333             
1 49199U 21083P   24171.56828615  .00000355  00000+0  93657-3 0  9997
2 49199  87.8936 105.0869 0002207  80.7007 279.4372 13.13471738135390
ONEWEB-0334             
1 49200U 21083Q   24171.61851737  .00000067  00000+0  13177-3 0  9996
2 49200  87.9207  59.2379 0002726  84.6775 275.4669 13.20773078140753
ONEWEB-0335             
1 49201U 21083R   24171.56354040  .00000236  00000+0  61107-3 0  9990
2 49201  87.8936 105.0763 0001971  76.2201 283.9147 13.13471080135402
ONEWEB-0336             
1 49202U 21083S   24171.53336835 -.00000311  00000+0 -88611-3 0  9995
2 49202  87.8936 105.0783 0002173  82.5848 277.5528 13.13471260135397
ONEWEB-0337             
1 49203U 21083T   24171.54275536 -.00000264  00000+0 -75770-3 0  9996
2 49203  87.8933 105.0752 0001952  78.4521 281.6827 13.13471263135398
ONEWEB-0338             
1 49204U 21083U   24171.62481904  .00000070  00000+0  14065-3 0  9997
2 49204  87.9213  59.2203 0002316  75.4799 284.6592 13.20774988140779
ONEWEB-0339             
1 49205U 21083V   24171.32547301  .00000082  00000+0  19033-3 0  9992
2 49205  87.8931 105.1138 0002005  75.9702 284.1650 13.13471151135343
